{
"type": "FeatureCollection",
"name": "joinville_limite",
"crs": { "type": "name", "properties": { "name": "urn:ogc:def:crs:OGC:1.3:CRS84" } },
"features": [
{ "type": "Feature", "properties": { "CD_MUN": "4209102", "NM_MUN": "Joinville", "SIGLA_UF": "SC", "AREA_KM2": 1127.946 }, "geometry": { "type": "Polygon", "coordinates": [ [ [ -49.07369, -26.075083999 ], [ -49.068405088, -26.07510812 ], [ -49.066876, -26.075675999 ], [ -49.065042494, -26.075103481 ], [ -49.059307929, -26.077264367 ], [ -49.056883405, -26.075975388 ], [ -49.051591541, -26.079057964 ], [ -49.051491364, -26.080796747 ], [ -49.049359029, -26.083973784 ], [ -49.050367991, -26.086721117 ], [ -49.049638093, -26.087716103 ], [ -49.046518301, -26.088653472 ], [ -49.044954827, -26.095308075 ], [ -49.047967287, -26.099007462 ], [ -49.04691543, -26.104438477 ], [ -49.048676831, -26.107374307 ], [ -49.046421701, -26.111751385 ], [ -49.04202036, -26.114046616 ], [ -48.975178633, -26.12524265 ], [ -48.828270049, -26.123134197 ], [ -48.82858781, -26.122490369 ], [ -48.827953252, -26.12171401 ], [ -48.823064453, -26.120167162 ], [ -48.822302202, -26.120623043 ], [ -48.82105566, -26.125875778 ], [ -48.817425582, -26.128788069 ], [ -48.814144229, -26.128287445 ], [ -48.810237367, -26.130166722 ], [ -48.801867971, -26.130022869 ], [ -48.793721954, -26.13163143 ], [ -48.792357465, -26.136571385 ], [ -48.789494724, -26.142634233 ], [ -48.780816639, -26.158022025 ], [ -48.759775917, -26.189374383 ], [ -48.757210266, -26.194486872 ], [ -48.755861009, -26.19866413 ], [ -48.75606492, -26.202738398 ], [ -48.758491954, -26.204875413 ], [ -48.762680244, -26.207103426 ], [ -48.764352687, -26.211836649 ], [ -48.764011115, -26.214948267 ], [ -48.760263164, -26.226530661 ], [ -48.756938995, -26.234366506 ], [ -48.746220442, -26.248494393 ], [ -48.741544816, -26.260947826 ], [ -48.739885799, -26.28635716 ], [ -48.74411092, -26.28875839 ], [ -48.757196443, -26.293868272 ], [ -48.758042359, -26.295594717 ], [ -48.758124532, -26.297705275 ], [ -48.757534181, -26.299218995 ], [ -48.751808394, -26.302243788 ], [ -48.743345855, -26.313651257 ], [ -48.743484298, -26.315665316 ], [ -48.733246966, -26.32291276 ], [ -48.730809926, -26.325938051 ], [ -48.724078844, -26.337308654 ], [ -48.723204527, -26.341238913 ], [ -48.724334328, -26.343727365 ], [ -48.727340565, -26.345296376 ], [ -48.732179787, -26.349901233 ], [ -48.732579523, -26.351276149 ], [ -48.731060994, -26.353559394 ], [ -48.733963489, -26.354957939 ], [ -48.736548506, -26.358060627 ], [ -48.738521035, -26.357519038 ], [ -48.739195689, -26.355697832 ], [ -48.740258475, -26.3553898 ], [ -48.744841585, -26.357364117 ], [ -48.745826966, -26.360104303 ], [ -48.748551773, -26.359251578 ], [ -48.749725822, -26.360452784 ], [ -48.752199337, -26.360986821 ], [ -48.752937507, -26.358795363 ], [ -48.754065598, -26.360792313 ], [ -48.756689472, -26.361367235 ], [ -48.756279373, -26.35824757 ], [ -48.759464925, -26.359265161 ], [ -48.759692353, -26.358188171 ], [ -48.758808353, -26.3555986 ], [ -48.760045448, -26.355785276 ], [ -48.761316098, -26.357352456 ], [ -48.761962032, -26.356449564 ], [ -48.761684797, -26.35473248 ], [ -48.76318361, -26.355170965 ], [ -48.764216763, -26.354262927 ], [ -48.763765718, -26.353268236 ], [ -48.765264952, -26.351927443 ], [ -48.768165426, -26.35278819 ], [ -48.767642598, -26.353358064 ], [ -48.768017667, -26.355249579 ], [ -48.769065768, -26.356857072 ], [ -48.773533201, -26.355858777 ], [ -48.775362796, -26.356691291 ], [ -48.777734493, -26.356236313 ], [ -48.7783976, -26.358220793 ], [ -48.780449844, -26.359246915 ], [ -48.781369481, -26.361337881 ], [ -48.782414964, -26.361013587 ], [ -48.784888305, -26.362877063 ], [ -48.785628855, -26.362751218 ], [ -48.787533189, -26.364619396 ], [ -48.792025623, -26.365977286 ], [ -48.800480121, -26.367097255 ], [ -48.801721755, -26.368566703 ], [ -48.803189793, -26.368982439 ], [ -48.803685121, -26.370654787 ], [ -48.805269521, -26.371380567 ], [ -48.807375006, -26.375754041 ], [ -48.80506861, -26.379680131 ], [ -48.805821202, -26.380759911 ], [ -48.807734004, -26.381601305 ], [ -48.807292224, -26.38381798 ], [ -48.808540554, -26.38818494 ], [ -48.808507, -26.392160998 ], [ -48.811054508, -26.394400946 ], [ -48.81479445, -26.395948644 ], [ -48.821252739, -26.396098858 ], [ -48.824941444, -26.399596655 ], [ -48.823148482, -26.400837402 ], [ -48.822937394, -26.409808822 ], [ -48.824440046, -26.413379411 ], [ -48.8180095, -26.413297005 ], [ -48.817175738, -26.414264569 ], [ -48.812547709, -26.416433136 ], [ -48.810763984, -26.416427042 ], [ -48.809984695, -26.415486857 ], [ -48.807894474, -26.415360598 ], [ -48.806949925, -26.414323522 ], [ -48.805936359, -26.414292157 ], [ -48.803297684, -26.415628411 ], [ -48.803621919, -26.418749459 ], [ -48.806708628, -26.423007364 ], [ -48.80679288, -26.424265481 ], [ -48.808231275, -26.424236353 ], [ -48.813540118, -26.429143436 ], [ -48.817422155, -26.434078961 ], [ -48.81872726, -26.433694062 ], [ -48.820172737, -26.435276611 ], [ -48.82289172, -26.439524715 ], [ -48.821832777, -26.44291305 ], [ -48.823182223, -26.445435214 ], [ -48.826026543, -26.446176594 ], [ -48.82507961, -26.44938616 ], [ -48.827744036, -26.450870833 ], [ -48.827896593, -26.452001442 ], [ -48.830666065, -26.44940431 ], [ -48.831345611, -26.447489778 ], [ -48.832812124, -26.447373945 ], [ -48.834513828, -26.448261333 ], [ -48.836849958, -26.446941538 ], [ -48.838337384, -26.44456244 ], [ -48.838231885, -26.44279822 ], [ -48.8391853, -26.439996926 ], [ -48.840520997, -26.438661425 ], [ -48.840828699, -26.436592796 ], [ -48.842324234, -26.4337036 ], [ -48.849008161, -26.427594377 ], [ -48.850390658, -26.42517648 ], [ -48.853775648, -26.423118314 ], [ -48.853782812, -26.417114571 ], [ -48.856387062, -26.411376005 ], [ -48.866827674, -26.399119123 ], [ -48.871235248, -26.395582714 ], [ -48.871830759, -26.393233083 ], [ -48.874663881, -26.391290408 ], [ -48.875635539, -26.387601882 ], [ -48.875655117, -26.382454936 ], [ -48.877007619, -26.380513912 ], [ -48.879398708, -26.380955513 ], [ -48.882303707, -26.379601149 ], [ -48.883816644, -26.379957358 ], [ -48.89661421, -26.374798251 ], [ -48.906197281, -26.373507449 ], [ -48.918398761, -26.376791479 ], [ -48.923263642, -26.379878594 ], [ -48.923405687, -26.385092019 ], [ -48.921224636, -26.389549105 ], [ -48.92087465, -26.391609977 ], [ -48.924211423, -26.404286504 ], [ -48.924278145, -26.416133856 ], [ -48.92528131, -26.418125098 ], [ -48.930498503, -26.421209093 ], [ -48.938422438, -26.418683698 ], [ -48.946054691, -26.414929911 ], [ -48.94616909, -26.414341251 ], [ -48.950638003, -26.411867254 ], [ -48.953447625, -26.411790804 ], [ -48.953601131, -26.406997334 ], [ -48.959655326, -26.405304849 ], [ -48.960416413, -26.403850158 ], [ -48.964007282, -26.403316222 ], [ -48.966289482, -26.39918297 ], [ -48.970421711, -26.399078135 ], [ -48.972448508, -26.398236372 ], [ -48.974960542, -26.395311327 ], [ -48.982332198, -26.394929276 ], [ -48.984404883, -26.392823322 ], [ -48.98791234, -26.392210861 ], [ -48.990503451, -26.389388617 ], [ -48.996707522, -26.389120991 ], [ -49.00145181, -26.390215827 ], [ -49.002935921, -26.389777892 ], [ -49.006716898, -26.384866941 ], [ -49.005214411, -26.38318313 ], [ -49.005904675, -26.377229998 ], [ -49.00538948, -26.374131672 ], [ -49.003700785, -26.371942093 ], [ -49.003762948, -26.367660428 ], [ -49.006568261, -26.366177249 ], [ -49.008893794, -26.36344743 ], [ -49.011927721, -26.364005558 ], [ -49.012861512, -26.362406307 ], [ -49.016299362, -26.360204411 ], [ -49.018406653, -26.356537223 ], [ -49.018456741, -26.352540884 ], [ -49.020745252, -26.350506737 ], [ -49.020051856, -26.348195416 ], [ -49.017622464, -26.345095144 ], [ -49.016782357, -26.340333623 ], [ -49.017209897, -26.338789826 ], [ -49.014276148, -26.33156994 ], [ -49.012823584, -26.33011022 ], [ -49.012181202, -26.326396017 ], [ -49.008896695, -26.325070049 ], [ -49.008272694, -26.324028056 ], [ -49.006362179, -26.322997666 ], [ -49.002875097, -26.317904957 ], [ -48.998834606, -26.316933391 ], [ -48.996079744, -26.312933473 ], [ -48.996394585, -26.311738507 ], [ -49.00168249, -26.31046483 ], [ -49.005434089, -26.308584888 ], [ -49.008988243, -26.309405818 ], [ -49.01021226, -26.310583358 ], [ -49.0120827, -26.310667895 ], [ -49.013221296, -26.309973479 ], [ -49.016674149, -26.31130319 ], [ -49.018090224, -26.311135991 ], [ -49.027185661, -26.307139037 ], [ -49.028655062, -26.311092191 ], [ -49.031037839, -26.31277373 ], [ -49.035180866, -26.31409034 ], [ -49.03797798, -26.308687444 ], [ -49.042366178, -26.30852124 ], [ -49.045345606, -26.306798455 ], [ -49.048198728, -26.307018303 ], [ -49.050505488, -26.308709668 ], [ -49.051010519, -26.30995824 ], [ -49.055081662, -26.310857936 ], [ -49.055673558, -26.31334314 ], [ -49.058071758, -26.315297967 ], [ -49.060123785, -26.313213687 ], [ -49.063322273, -26.312711501 ], [ -49.060023413, -26.305479154 ], [ -49.060218358, -26.304394426 ], [ -49.059335176, -26.302042001 ], [ -49.052334561, -26.296384786 ], [ -49.052771045, -26.293300771 ], [ -49.054195702, -26.292086571 ], [ -49.053958729, -26.289956617 ], [ -49.050371829, -26.28779906 ], [ -49.049686841, -26.284395134 ], [ -49.046021993, -26.283170354 ], [ -49.043268592, -26.283087609 ], [ -49.043033984, -26.281395748 ], [ -49.041330479, -26.28005163 ], [ -49.041082111, -26.278594878 ], [ -49.039130507, -26.278018781 ], [ -49.03817501, -26.278587305 ], [ -49.035129981, -26.278334663 ], [ -49.033203603, -26.276086511 ], [ -49.030498829, -26.275578471 ], [ -49.028966111, -26.273091109 ], [ -49.028682113, -26.271704168 ], [ -49.030165977, -26.271019007 ], [ -49.031898762, -26.268999591 ], [ -49.033059765, -26.264657543 ], [ -49.031908806, -26.263437626 ], [ -49.03324503, -26.261361787 ], [ -49.039569841, -26.262636861 ], [ -49.040869292, -26.268243764 ], [ -49.042045348, -26.269713434 ], [ -49.047608579, -26.273321003 ], [ -49.048137018, -26.275681856 ], [ -49.046341023, -26.275761491 ], [ -49.046269365, -26.277364449 ], [ -49.044603256, -26.27827944 ], [ -49.044834408, -26.279250276 ], [ -49.04631404, -26.279705413 ], [ -49.047977425, -26.279108836 ], [ -49.051102004, -26.280453016 ], [ -49.052467654, -26.279232251 ], [ -49.053185795, -26.280120403 ], [ -49.05415343, -26.278711269 ], [ -49.055560239, -26.278165718 ], [ -49.057615367, -26.278583391 ], [ -49.058411565, -26.280159467 ], [ -49.05825776, -26.282500802 ], [ -49.057745225, -26.283207778 ], [ -49.057018266, -26.283101336 ], [ -49.057594002, -26.284892329 ], [ -49.06311806, -26.290131028 ], [ -49.063009657, -26.292112682 ], [ -49.061038399, -26.293682476 ], [ -49.061437607, -26.294853836 ], [ -49.062947443, -26.295677443 ], [ -49.062141616, -26.296569863 ], [ -49.064328989, -26.296487943 ], [ -49.06511342, -26.297501315 ], [ -49.067758818, -26.2977894 ], [ -49.070977882, -26.297093301 ], [ -49.071732829, -26.296590667 ], [ -49.072190164, -26.294165993 ], [ -49.074694386, -26.293160233 ], [ -49.076079018, -26.294190307 ], [ -49.0828209, -26.295046975 ], [ -49.08230742, -26.298084377 ], [ -49.082624386, -26.298655085 ], [ -49.084131117, -26.2987638 ], [ -49.083978241, -26.299759578 ], [ -49.084869942, -26.300210763 ], [ -49.084634015, -26.30270512 ], [ -49.086285116, -26.302348806 ], [ -49.08603336, -26.304942971 ], [ -49.08506307, -26.305811292 ], [ -49.085630063, -26.307538963 ], [ -49.084151596, -26.307918357 ], [ -49.083118026, -26.310754264 ], [ -49.083999626, -26.313152872 ], [ -49.086567864, -26.314215938 ], [ -49.088062905, -26.316604769 ], [ -49.08588377, -26.32033654 ], [ -49.092248579, -26.323892022 ], [ -49.093245768, -26.325371528 ], [ -49.093519867, -26.327860676 ], [ -49.095173899, -26.330015996 ], [ -49.096623938, -26.326852242 ], [ -49.099224782, -26.32581235 ], [ -49.099457335, -26.324921492 ], [ -49.101450139, -26.323365174 ], [ -49.101500227, -26.322531559 ], [ -49.104036847, -26.320617466 ], [ -49.104501954, -26.318957393 ], [ -49.106909775, -26.317579962 ], [ -49.10699152, -26.315333043 ], [ -49.105890118, -26.311762551 ], [ -49.103586051, -26.310188344 ], [ -49.103037946, -26.308484236 ], [ -49.104115557, -26.305143725 ], [ -49.103364231, -26.303333387 ], [ -49.103442942, -26.299963153 ], [ -49.102276597, -26.296549985 ], [ -49.103607518, -26.295412263 ], [ -49.106741621, -26.295548217 ], [ -49.109410618, -26.294167208 ], [ -49.110877493, -26.294732492 ], [ -49.11167533, -26.29776284 ], [ -49.111203068, -26.299015051 ], [ -49.11314936, -26.300997121 ], [ -49.116090823, -26.302249754 ], [ -49.117914915, -26.303916559 ], [ -49.120208248, -26.302800303 ], [ -49.123063288, -26.303354854 ], [ -49.125713214, -26.306556108 ], [ -49.128692158, -26.308368131 ], [ -49.128531497, -26.309981532 ], [ -49.129783049, -26.309053076 ], [ -49.135635007, -26.309687035 ], [ -49.137106956, -26.314483598 ], [ -49.139830466, -26.317276035 ], [ -49.140264038, -26.314991666 ], [ -49.141603928, -26.315297545 ], [ -49.142345268, -26.316524189 ], [ -49.144741186, -26.316205654 ], [ -49.144044664, -26.31434067 ], [ -49.142777051, -26.313211524 ], [ -49.142913115, -26.310935184 ], [ -49.14468899, -26.310796391 ], [ -49.145189391, -26.309531385 ], [ -49.143383071, -26.303238759 ], [ -49.144500194, -26.303651701 ], [ -49.148099607, -26.303036415 ], [ -49.149461568, -26.304066518 ], [ -49.150233702, -26.302584427 ], [ -49.152207566, -26.303257478 ], [ -49.154240187, -26.301348919 ], [ -49.155410282, -26.301343541 ], [ -49.155184423, -26.299705562 ], [ -49.154216683, -26.298439964 ], [ -49.156604005, -26.297265324 ], [ -49.155379255, -26.296588302 ], [ -49.155040145, -26.295668364 ], [ -49.157230625, -26.293200005 ], [ -49.157036998, -26.29123326 ], [ -49.158003099, -26.290524316 ], [ -49.155605503, -26.287917459 ], [ -49.157756686, -26.28724268 ], [ -49.159141301, -26.284013615 ], [ -49.162774558, -26.283955907 ], [ -49.162023343, -26.277563957 ], [ -49.164268178, -26.272139112 ], [ -49.165969151, -26.271987212 ], [ -49.166709235, -26.271269806 ], [ -49.167106102, -26.271771696 ], [ -49.167238976, -26.270458648 ], [ -49.168814733, -26.268941547 ], [ -49.17022458, -26.269127815 ], [ -49.170999237, -26.269917961 ], [ -49.171536415, -26.268867567 ], [ -49.170451158, -26.268117967 ], [ -49.169991955, -26.266790114 ], [ -49.17214705, -26.264454663 ], [ -49.174353942, -26.266093794 ], [ -49.17568423, -26.265050707 ], [ -49.175062906, -26.263179708 ], [ -49.175669475, -26.262874006 ], [ -49.174420897, -26.262468948 ], [ -49.173490061, -26.261080869 ], [ -49.174765641, -26.259447769 ], [ -49.175400924, -26.25964739 ], [ -49.175922208, -26.257704287 ], [ -49.172493451, -26.253611869 ], [ -49.173594172, -26.251918843 ], [ -49.173125815, -26.249288775 ], [ -49.170866478, -26.2479733 ], [ -49.168593666, -26.244939384 ], [ -49.168829365, -26.243192998 ], [ -49.170660029, -26.244043178 ], [ -49.171688302, -26.243053309 ], [ -49.170514759, -26.242188829 ], [ -49.169868084, -26.239430842 ], [ -49.168829313, -26.237894277 ], [ -49.169746132, -26.234477837 ], [ -49.168464806, -26.23298045 ], [ -49.170150969, -26.232860149 ], [ -49.17093366, -26.232042585 ], [ -49.170355538, -26.231074968 ], [ -49.170638695, -26.229252812 ], [ -49.169974596, -26.229022605 ], [ -49.170827873, -26.228483429 ], [ -49.169762527, -26.227184535 ], [ -49.170382355, -26.226622566 ], [ -49.17036584, -26.225070726 ], [ -49.171377922, -26.224598266 ], [ -49.171010098, -26.223589228 ], [ -49.170020428, -26.224080066 ], [ -49.169420981, -26.223141045 ], [ -49.169309714, -26.221037345 ], [ -49.170053934, -26.219555938 ], [ -49.169564866, -26.2180262 ], [ -49.173039328, -26.217757646 ], [ -49.178231237, -26.219787714 ], [ -49.180868664, -26.21979789 ], [ -49.181487633, -26.217739021 ], [ -49.186027536, -26.216575841 ], [ -49.188365453, -26.217188958 ], [ -49.189439734, -26.218854839 ], [ -49.190855524, -26.21883493 ], [ -49.192210229, -26.220415203 ], [ -49.193496949, -26.220212818 ], [ -49.195537034, -26.221176047 ], [ -49.197283147, -26.221169214 ], [ -49.198619068, -26.219769366 ], [ -49.202069692, -26.220799617 ], [ -49.202600708, -26.220249114 ], [ -49.198370356, -26.216186387 ], [ -49.19958, -26.214473772 ], [ -49.201163095, -26.21406778 ], [ -49.199023001, -26.210783987 ], [ -49.197984523, -26.206806103 ], [ -49.19483706, -26.203895993 ], [ -49.193270336, -26.203226695 ], [ -49.192594047, -26.201595016 ], [ -49.190991519, -26.200222006 ], [ -49.182901167, -26.201409275 ], [ -49.18141056, -26.204950808 ], [ -49.17872386, -26.205399832 ], [ -49.17835524, -26.206529989 ], [ -49.176379278, -26.207923298 ], [ -49.174005452, -26.206845716 ], [ -49.173636494, -26.205081231 ], [ -49.169622546, -26.199897426 ], [ -49.168997161, -26.198253665 ], [ -49.16971782, -26.193806204 ], [ -49.16823476, -26.190055635 ], [ -49.168276724, -26.188092775 ], [ -49.169073089, -26.186954842 ], [ -49.170801295, -26.186184353 ], [ -49.171876089, -26.184348155 ], [ -49.17113179, -26.182519544 ], [ -49.171403961, -26.180696179 ], [ -49.169441453, -26.17629711 ], [ -49.16998527, -26.173520781 ], [ -49.172103294, -26.169141623 ], [ -49.173648879, -26.167953812 ], [ -49.177312488, -26.167524483 ], [ -49.179294558, -26.168647895 ], [ -49.182006488, -26.168905492 ], [ -49.183214937, -26.166019309 ], [ -49.182245052, -26.1626664 ], [ -49.180550827, -26.16050836 ], [ -49.179641885, -26.161259344 ], [ -49.177991266, -26.160718494 ], [ -49.178194164, -26.158641664 ], [ -49.18009449, -26.155018077 ], [ -49.182368551, -26.153364515 ], [ -49.182873675, -26.152061824 ], [ -49.185637331, -26.151174093 ], [ -49.188093653, -26.151431354 ], [ -49.189947818, -26.150353103 ], [ -49.190444711, -26.149210301 ], [ -49.188691616, -26.147485829 ], [ -49.189264055, -26.145646869 ], [ -49.183974388, -26.141081083 ], [ -49.182078194, -26.141942549 ], [ -49.178722013, -26.141621626 ], [ -49.174955074, -26.137451121 ], [ -49.172694102, -26.137454472 ], [ -49.171889088, -26.134592609 ], [ -49.16945609, -26.132649987 ], [ -49.167753464, -26.133225396 ], [ -49.165535378, -26.132292285 ], [ -49.162951126, -26.13392001 ], [ -49.160499847, -26.132842447 ], [ -49.161423534, -26.128956482 ], [ -49.159556561, -26.127449493 ], [ -49.15940404, -26.125257804 ], [ -49.160743571, -26.123892674 ], [ -49.159692894, -26.120693052 ], [ -49.160065855, -26.118574617 ], [ -49.158230686, -26.117303449 ], [ -49.158831101, -26.113893881 ], [ -49.153982, -26.113455999 ], [ -49.152870894, -26.112251519 ], [ -49.151297065, -26.11178679 ], [ -49.14856676, -26.113590636 ], [ -49.146703, -26.114038999 ], [ -49.142311161, -26.117271414 ], [ -49.137635052, -26.116923565 ], [ -49.137222848, -26.115946149 ], [ -49.139639507, -26.112932107 ], [ -49.139854693, -26.109479594 ], [ -49.135418791, -26.108407324 ], [ -49.135122179, -26.105274686 ], [ -49.133975665, -26.103540186 ], [ -49.130763517, -26.101341335 ], [ -49.130646461, -26.100358773 ], [ -49.126147496, -26.099826689 ], [ -49.125495197, -26.10178208 ], [ -49.124131917, -26.10301011 ], [ -49.119508907, -26.100350768 ], [ -49.116467381, -26.099650029 ], [ -49.111622, -26.094881999 ], [ -49.107696208, -26.094055359 ], [ -49.107239905, -26.092356433 ], [ -49.105634698, -26.090995429 ], [ -49.101788316, -26.091200744 ], [ -49.100043286, -26.088546444 ], [ -49.094258157, -26.088818113 ], [ -49.090998187, -26.089667449 ], [ -49.089461298, -26.089299652 ], [ -49.08873478, -26.087968229 ], [ -49.085923364, -26.087246394 ], [ -49.083710157, -26.083399655 ], [ -49.08238886, -26.082312116 ], [ -49.078361585, -26.081740995 ], [ -49.075221996, -26.079550689 ], [ -49.074222515, -26.078018699 ], [ -49.074684753, -26.076359897 ], [ -49.07369, -26.075083999 ] ] ] } }
]
}
